TRANSPORTER-15 OBJECT CN
1 66750U 25276CN  26068.19135815  .00005857  00000+0  28330-3 0  9994
2 66750  97.4304 143.5648 0000507 336.0158  24.1053 15.18977527 15241
MAUVE                   
1 66756U 25276CU  26068.71857583  .00008348  00000+0  39937-3 0  9994
2 66756  97.4273 144.0489 0000577 359.2470   0.8764 15.19228326 15328
